ASTRA 1M                
1 33436U 08057A   26192.64006419  .00000126  00000+0  00000+0 0  9996
2 33436   0.3566  82.6997 0004144  36.0741  60.6054  1.00275017 45986
EUTELSAT HOTBIRD 13C    
1 33459U 08065A   26192.76879617 -.00000281  00000+0  00000+0 0  9994
2 33459   3.0108  78.8989 0003328  34.1568  43.0731  1.00271959 47597
EXPRESS-AM44            
1 33595U 09007A   26192.42017771 -.00000087  00000+0  00000+0 0  9994
2 33595   3.5219  78.1025 0003761  26.0514 325.4184  1.00271229 52520
NSS-9                   
1 33749U 09008A   26192.74374939  .00000075  00000+0  00000+0 0  9999
2 33749   1.3225  82.4146 0001846  18.9056 279.1349  1.00270721 63761
TELSTAR 11N             
1 34111U 09009A   26192.77139618 -.00000246  00000+0  00000+0 0  9991
2 34111   0.0427 264.4716 0002292 201.7190  63.6301  1.00269957 46491
WGS F2 (USA 204)        
1 34713U 09017A   26192.50500648  .00000074  00000+0  00000+0 0  9992
2 34713   0.0175  26.4281 0000472 201.6145 300.6631  1.00270809 45867
SES-7 (PROTOSTAR 2)     
1 34941U 09027A   26192.72892931 -.00000340  00000+0  00000+0 0  9996
2 34941   0.0224  58.5521 0000478 178.7508  62.9887  1.00269909 62871
MEASAT-3A               
1 35362U 09032A   26192.73915603 -.00000106  00000+0  00000+0 0  9993
2 35362   0.0409 308.8229 0002591 151.4580 255.4493  1.00269914  8278
GOES 14                 
1 35491U 09033A   26192.69608872 -.00000352  00000+0  00000+0 0  9992
2 35491   1.7501  82.7380 0001880  39.9275 184.7708  1.00099857  6839
FM-5                    
1 35493U 09034A   26192.61917743 -.00000195  00000+0  00000+0 0  9992
2 35493   0.0382 274.2458 0000680  60.5782  91.4390  1.00270459 46883
TERRESTAR-1             
1 35496U 09035A   26192.68548000 -.00000056  00000+0  00000+0 0  9995
2 35496   5.1954  48.7777 0002595  55.8542 320.7346  1.00273076 62383
ASIASAT 5               
1 35696U 09042A   26192.79870248 -.00000303  00000+0  00000+0 0  9994
2 35696   0.0119 293.1774 0001762 146.7814 237.7635  1.00274314 61958
JCSAT-12 (JCSAT-RA)     
1 35755U 09044A   26192.73369600 -.00000323  00000+0  00000+0 0  9993
2 35755   0.0388 283.2831 0000607 293.4554 109.0816  1.00270660 61855
OPTUS D3                
1 35756U 09044B   26192.20183432 -.00000137  00000+0  00000+0 0  9996
2 35756   0.8915 268.3378 0003110 204.6913  44.8812  1.00271566 61808
NIMIQ 5                 
1 35873U 09050A   26192.62169078 -.00000252  00000+0  00000+0 0  9997
2 35873   0.0517 258.7794 0002529 206.9017 334.9497  1.00271897 61580
AMAZONAS 2              
1 35942U 09054A   26192.76454949 -.00000257  00000+0  00000+0 0  9992
2 35942   1.8764  82.7337 0003127  30.1185  20.0616  1.00270991 61430
COMSATBW-1              
1 35943U 09054B   26192.64868130  .00000030  00000+0  00000+0 0  9999
2 35943   0.0617 186.5183 0002633 284.9214 114.6791  1.00268957 61550
NSS-12                  
1 36032U 09058A   26192.69811493  .00000077  00000+0  00000+0 0  9999
2 36032   0.0441 286.1497 0004405 150.0465 161.7152  1.00268122 61165
THOR 6                  
1 36033U 09058B   26192.63607751 -.00000005  00000+0  00000+0 0  9996
2 36033   0.0139 286.6046 0001566 176.1756  54.9049  1.00270001 61259
INTELSAT 14 (IS-14)     
1 36097U 09064A   26192.69848006 -.00000269  00000+0  00000+0 0  9991
2 36097   0.0169  30.9146 0002225  85.0476  20.1049  1.00271191 60854
EUTELSAT 36B            
1 36101U 09065A   26192.64625462  .00000117  00000+0  00000+0 0  9993
2 36101   0.5501  81.2980 0005724  30.8802 100.5055  1.00272318 60951
INTELSAT 15 (IS-15)     
1 36106U 09067A   26192.72539262 -.00000180  00000+0  00000+0 0  9992
2 36106   0.0140  58.1521 0002102  60.5894 157.1810  1.00271240 41478
WGS F3 (USA 211)        
1 36108U 09068A   26192.75302277  .00000068  00000+0  00000+0 0  9996
2 36108   0.3011  85.6404 0000685  96.8336 248.2892  1.00271500 46838
DIRECTV 12              
1 36131U 09075A   26192.61588409 -.00000098  00000+0  00000+0 0  9992
2 36131   0.0094 118.0139 0000338  95.9566 194.5362  1.00271942 46798
BEIDOU-2 G1             
1 36287U 10001A   26192.69550190 -.00000279  00000+0  00000+0 0  9990
2 36287   4.3476  60.3174 0001926 291.5328 328.5763  1.00273442 60419
SDO                     
1 36395U 10005A   26192.24778596 -.00000102  00000+0  00000+0 0  9992
2 36395  34.6998  85.9778 0002020  56.2745 133.8056  1.00277272 60307
INTELSAT 16 (IS-16)     
1 36397U 10006A   26192.76359615 -.00000240  00000+0  00000+0 0  9992
2 36397   0.0114  31.2317 0002275 104.5623 352.5648  1.00270962 59903
EWS-G2 (GOES 15)        
1 36411U 10008A   26192.68674225  .00000026  00000+0  00000+0 0  9990
2 36411   1.3422  82.5088 0005206  53.5810 104.0827  1.00268167 59888
ECHOSTAR 14             
1 36499U 10010A   26192.61267740  .00000006  00000+0  00000+0 0  9990
2 36499   0.0468 260.1006 0001915 191.5374 299.5288  1.00270519 46796
SES-1                   
1 36516U 10016A   26192.20121895 -.00000107  00000+0  00000+0 0  9994
2 36516   0.0449 283.9782 0002451 182.6005 153.9573  1.00270296 59276
ASTRA 3B                
1 36581U 10021A   26192.56955963  .00000141  00000+0  00000+0 0  9999
2 36581   1.5309  83.2608 0004275  22.8136  51.9731  1.00275339 59112
COMSATBW-2              
1 36582U 10021B   26192.63885086  .00000094  00000+0  00000+0 0  9993
2 36582   0.0471 125.4598 0002372   5.0938  42.1876  1.00272621 59206
