OBJECT_NAME,OBJECT_ID,EPOCH,MEAN_MOTION,ECCENTRICITY,INCLINATION,RA_OF_ASC_NODE,ARG_OF_PERICENTER,MEAN_ANOMALY,EPHEMERIS_TYPE,CLASSIFICATION_TYPE,NORAD_CAT_ID,ELEMENT_SET_NO,REV_AT_EPOCH,BSTAR,MEAN_MOTION_DOT,MEAN_MOTION_DDOT
ASTRA 1M,2008-057A,2026-07-11T15:21:41.546016,1.00275017,.00041449,0.3566,82.6997,36.0741,60.6054,0,U,33436,999,4598,0,.126E-5,0
EUTELSAT HOTBIRD 13C,2008-065A,2026-07-11T18:27:03.989088,1.00271959,.00033281,3.0108,78.8989,34.1568,43.0731,0,U,33459,999,4759,0,-.281E-5,0
EXPRESS-AM44,2009-007A,2026-07-11T10:05:03.354144,1.00271229,.00037611,3.5219,78.1025,26.0514,325.4184,0,U,33595,999,5252,0,-.87E-6,0
NSS-9,2009-008A,2026-07-11T17:50:59.947296,1.00270721,.00018461,1.3225,82.4146,18.9056,279.1349,0,U,33749,999,6376,0,.75E-6,0
TELSTAR 11N,2009-009A,2026-07-11T18:30:48.629952,1.00269957,.00022929,0.0427,264.4716,201.7190,63.6301,0,U,34111,999,4649,0,-.246E-5,0
WGS F2 (USA 204),2009-017A,2026-07-11T12:07:12.559872,1.00270809,.00004724,0.0175,26.4281,201.6145,300.6631,0,U,34713,999,4586,0,.74E-6,0
SES-7 (PROTOSTAR 2),2009-027A,2026-07-11T17:29:39.492384,1.00269909,.00004782,0.0224,58.5521,178.7508,62.9887,0,U,34941,999,6287,0,-.34E-5,0
MEASAT-3A,2009-032A,2026-07-11T17:44:23.080992,1.00269914,.00025912,0.0409,308.8229,151.4580,255.4493,0,U,35362,999,827,0,-.106E-5,0
GOES 14,2009-033A,2026-07-11T16:42:22.065408,1.00099857,.000188,1.7501,82.7380,39.9275,184.7708,0,U,35491,999,683,0,-.352E-5,0
FM-5,2009-034A,2026-07-11T14:51:36.929952,1.00270459,.00006805,0.0382,274.2458,60.5782,91.4390,0,U,35493,999,4688,0,-.195E-5,0
TERRESTAR-1,2009-035A,2026-07-11T16:27:05.472000,1.00273076,.00025959,5.1954,48.7777,55.8542,320.7346,0,U,35496,999,6238,0,-.56E-6,0
ASIASAT 5,2009-042A,2026-07-11T19:10:07.894272,1.00274314,.00017622,0.0119,293.1774,146.7814,237.7635,0,U,35696,999,6195,0,-.303E-5,0
JCSAT-12 (JCSAT-RA),2009-044A,2026-07-11T17:36:31.334400,1.00270660,.00006076,0.0388,283.2831,293.4554,109.0816,0,U,35755,999,6185,0,-.323E-5,0
OPTUS D3,2009-044B,2026-07-11T04:50:38.485248,1.00271566,.00031101,0.8915,268.3378,204.6913,44.8812,0,U,35756,999,6180,0,-.137E-5,0
NIMIQ 5,2009-050A,2026-07-11T14:55:14.083392,1.00271897,.00025293,0.0517,258.7794,206.9017,334.9497,0,U,35873,999,6158,0,-.252E-5,0
AMAZONAS 2,2009-054A,2026-07-11T18:20:57.075936,1.00270991,.00031278,1.8764,82.7337,30.1185,20.0616,0,U,35942,999,6143,0,-.257E-5,0
COMSATBW-1,2009-054B,2026-07-11T15:34:06.064320,1.00268957,.00026331,0.0617,186.5183,284.9214,114.6791,0,U,35943,999,6155,0,.3E-6,0
NSS-12,2009-058A,2026-07-11T16:45:17.129952,1.00268122,.00044053,0.0441,286.1497,150.0465,161.7152,0,U,36032,999,6116,0,.77E-6,0
THOR 6,2009-058B,2026-07-11T15:15:57.096864,1.00270001,.00015665,0.0139,286.6046,176.1756,54.9049,0,U,36033,999,6125,0,-.5E-7,0
INTELSAT 14 (IS-14),2009-064A,2026-07-11T16:45:48.677184,1.00271191,.0002225,0.0169,30.9146,85.0476,20.1049,0,U,36097,999,6085,0,-.269E-5,0
EUTELSAT 36B,2009-065A,2026-07-11T15:30:36.399168,1.00272318,.00057244,0.5501,81.2980,30.8802,100.5055,0,U,36101,999,6095,0,.117E-5,0
INTELSAT 15 (IS-15),2009-067A,2026-07-11T17:24:33.922368,1.00271240,.00021024,0.0140,58.1521,60.5894,157.1810,0,U,36106,999,4147,0,-.18E-5,0
WGS F3 (USA 211),2009-068A,2026-07-11T18:04:21.167328,1.00271500,.00006855,0.3011,85.6404,96.8336,248.2892,0,U,36108,999,4683,0,.68E-6,0
DIRECTV 12,2009-075A,2026-07-11T14:46:52.385376,1.00271942,.00003384,0.0094,118.0139,95.9566,194.5362,0,U,36131,999,4679,0,-.98E-6,0
BEIDOU-2 G1,2010-001A,2026-07-11T16:41:31.364160,1.00273442,.00019268,4.3476,60.3174,291.5328,328.5763,0,U,36287,999,6041,0,-.279E-5,0
SDO,2010-005A,2026-07-11T05:56:48.706944,1.00277272,.00020204,34.6998,85.9778,56.2745,133.8056,0,U,36395,999,6030,0,-.102E-5,0
INTELSAT 16 (IS-16),2010-006A,2026-07-11T18:19:34.707360,1.00270962,.00022752,0.0114,31.2317,104.5623,352.5648,0,U,36397,999,5990,0,-.24E-5,0
EWS-G2 (GOES 15),2010-008A,2026-07-11T16:28:54.530400,1.00268167,.00052066,1.3422,82.5088,53.5810,104.0827,0,U,36411,999,5988,0,.26E-6,0
ECHOSTAR 14,2010-010A,2026-07-11T14:42:15.327360,1.00270519,.00019156,0.0468,260.1006,191.5374,299.5288,0,U,36499,999,4679,0,.6E-7,0
SES-1,2010-016A,2026-07-11T04:49:45.317280,1.00270296,.00024515,0.0449,283.9782,182.6005,153.9573,0,U,36516,999,5927,0,-.107E-5,0
ASTRA 3B,2010-021A,2026-07-11T13:40:09.952032,1.00275339,.00042751,1.5309,83.2608,22.8136,51.9731,0,U,36581,999,5911,0,.141E-5,0
COMSATBW-2,2010-021B,2026-07-11T15:19:56.714304,1.00272621,.00023722,0.0471,125.4598,5.0938,42.1876,0,U,36582,999,5920,0,.94E-6,0
